#dP2020  2  2  0  0  0.00000000     288   u+U IGS14 FIT  GFZ                    
## 2091      0.00000000   300.00000000 58881 0.0000000000000                    
+   96   C01C02C03C04C05C06C07C08C09C10C11C12C13C14C16E01E02                    
+        E03E04E05E07E08E09E11E12E13E14E15E18E19E21E24E25E26                    
+        E27E30E31E33E36G01G02G03G04G05G06G07G08G09G10G11G12                    
+        G13G14G15G16G17G18G19G20G21G22G23G24G25G26G27G28G29                    
+        G30G31G32J01J02J03J07R01R02R03R04R05R07R08R09R11R12                    
+        R13R14R15R16R17R18R19R20R21R22R23 00 00 00 00 00 00                    
++        10 10 10 10  7  0 10  7  7  9  9 10  7  9  0  7  5                    
++         6  6  5  7  6  7  8  6  5  7  7  6  8  6  8  7  5                    
++         5  7  6  5 10  7  5  7  6  5  6  7  6  7  5  6  6                    
++         6  6  5  7  5  6  6  5  6  9  5  6  5  5  6  7  6                    
++         5  7 10 10 10 10 10  6  7  6  8  0  8  8  0  6 10                    
++         6  6  9  5  8 10  7  9  6  6  0  6  6  6  6  6  6                    
%c M  cc GPS ccc cccc cccc cccc cccc ccccc ccccc ccccc ccccc                    
%c cc cc ccc ccc cccc cccc cccc cccc ccccc ccccc ccccc ccccc                    
%f  1.2500000  1.025000000  0.00000000000  0.000000000000000                    
%f  0.0000000  0.000000000  0.00000000000  0.000000000000000                    
%i    0    0    0    0      0      0      0      0         0                    
%i    0    0    0    0      0      0      0      0         0                    
/* PCV:IGS14_2086 OL/AL:FES2004  NONE     YN CLK:CoN ORB:CoN                    
/*     GeoForschungsZentrum Potsdam                                             
/*                                                                              
/*                                                                              
*  2020  2  2 22 40  0.00000000                                                 
PC01 -32295.445612  27097.340806   -845.631911    155.247850                    
PC02   4449.238564  41925.182929   1110.667095    570.082529                    
PC03 -14858.625281  39492.787462    251.208179   -340.267261                    
PC04 -39614.239790  14387.884002   -431.058426   -424.439960                    
PC05  21896.550253  36050.774147   1361.706959   -281.546240                    
PC06  -6522.486984  34740.052001  23646.352650    250.930775                    
PC07 -16813.749168  22661.036293 -31239.951228     47.070851                    
PC08 -22705.563963  34328.469835   8369.261293   -104.085983                    
PC09   1778.753646  40336.967383  13017.155287    306.372401                    
PC10  -2141.218510  25896.650657 -33017.066985   -622.070616                    
PC11 -13756.753852  11955.267914 -21050.543251   -158.727228                    
PC12 -14490.124340  -9749.642030 -21729.742107    314.989816                    
PC13 -12000.061381  35072.548627  19931.329022    243.613855                    
PC14 -20686.689367   3498.509296  18452.611781    126.755808                    
PC16  -4624.882946  35330.274788  22728.619107   -804.682362                    
PE01  25032.595402 -10749.252411  11585.287718   -786.717326                    
PE02 -24965.216372  10792.321414 -11660.768666    110.067950                    
PE03 -14277.489577   9498.232677  24122.575472   -261.982519                    
PE04  -1990.850252 -23610.219208 -17740.592261   -458.063293                    
PE05 -22347.359828 -10328.310591  16432.302133   -408.712302                    
PE07  17307.768203  23993.920575    810.712139   -335.597777                    
PE08   2404.740515  23603.737256  17689.845076   6225.860024                    
PE09 -17528.091667 -23850.389128   -738.767734   6168.707074                    
PE11  -6625.859384 -19968.560472 -20810.321871   1080.881224                    
PE12   8126.564884 -28031.745622  -4866.074697   5970.521314                    
PE13   6481.777696  20122.535710  20734.171525    397.990387                    
PE14  14187.124884  -4242.866679  18036.229814   -890.991698                    
PE15  -7853.130123  28082.084949   5117.333646    878.646462                    
PE18 -19956.392022   5550.373727 -25193.975270   -988.093266                    
PE19  15566.466648  -7384.166258 -24070.067135     -1.699285                    
PE21  28717.092375   1228.446707  -7089.867612   -580.522514                    
PE24 -15448.925644 -12806.544662  21738.425738   5630.408240                    
PE25 -28681.164118  -1301.330162   7192.493015   -502.872966                    
PE26  17280.316921    206.180205  24044.570370   3574.275261                    
PE27  15598.426437  12653.611795 -21745.477069    290.535083                    
PE30  -6872.243100  16616.066857 -23518.600283   4174.448954                    
PE31   6642.114235 -16613.367721  23586.741510   -471.558997                    
PE33  17615.651760 -19549.668985  13559.792000   -470.599883                    
PE36 -17028.325515   -341.012138 -24196.283397    603.291810                    
PG01  13681.199932 -21940.144694  -5457.381379   -282.518515                    
PG02 -19556.575702   9796.891094 -14362.774911   -397.627107                    
PG03   7259.290693 -13862.269175 -21505.998441    -85.750444                    
PG04   2733.767412 -22472.656666 -13866.990162    -43.326761                    
PG05 -24787.873601   3096.860177   9167.735370     -7.006938                    
PG06 -15909.778476  -2972.621097 -21013.051650   -198.650923                    
PG07   -982.618415 -19103.160360  18508.407475   -205.899644                    
PG08   9596.859457 -13970.018082  20416.607292    -22.391589                    
PG09  -5998.341409 -25385.653194  -5020.161206   -146.811816                    
PG10  21137.241246  11616.677395  11457.470446   -231.644728                    
PG11  11378.206422 -22800.286223   7503.190473   -372.241302                    
PG12 -11433.875057  11762.778916 -21077.546240    155.521446                    
PG13 -14095.157267   5428.477841  21718.742524    -15.611619                    
PG14  16140.608424   9881.149132 -18379.904420    -34.902052                    
PG15  -8481.998604  15592.922875  19340.993875   -254.263214                    
PG16  25070.491898    219.584038   9225.817848   -120.275414                    
PG17 -13872.424800 -19351.286908 -11399.176670    209.456448                    
PG18  17142.465292 -19982.448958   2597.767124      0.522854                    
PG19 -15550.749326 -12309.431764 -17955.609195   -203.966133                    
PG20  12037.999438  14404.848109  18774.835848    527.848856                    
PG21   3922.688109  18398.211665  19635.084307    -46.644563                    
PG22  15683.745373 -11805.832839 -17618.722462   -783.744061                    
PG23    866.940781 -22903.093773 -12734.041951   -138.964981                    
PG24 -13790.913044  22301.985576  -2907.642495     -8.470913                    
PG25   2950.675008  15593.716100 -21561.890346    -14.424297                    
PG26  26389.203890   3926.141307   -341.613032    140.366694                    
PG27  14939.072493  -1892.695084  21786.163899   -199.727587                    
PG28 -20658.350976 -13057.306534  10817.034090    741.625241                    
PG29   3628.167063  25682.816813  -5703.106125    -23.298848                    
PG30 -10877.070037 -11362.621937  21423.452694   -143.960942                    
PG31  17926.637808    652.850767 -19768.366054    -20.661814                    
PG32  15722.335769  17839.840937 -11910.445937    202.065758                    
PJ01 -26019.344068  22617.302926  29363.077083   -325.252620                    
PJ02 -36022.980246  18502.256146  -7273.303576     -1.091843                    
PJ03 -19189.379342  28096.742146 -20203.253663     -0.317589                    
PJ07 -25377.692762  33673.569380     26.000483     -0.067082                    
PR01 -20876.354072 -14218.253054   3611.425633     56.521324                    
PR02 -15112.831075    149.675897  20566.836831    410.063257                    
PR03   -655.074366  12987.384499  21990.532779      9.357852                    
PR04  14152.187292  18176.122701  10981.863819     37.473898                    
PR05  20874.261908  13250.505841  -6314.856250     44.301284                    
PR07    188.902945 -13234.583552 -21765.011557    -32.737699                    
PR08 -14098.782907 -18224.229406 -10879.332633    -50.320806                    
PR09  22596.017538 -10928.936636   4365.869807    114.761067                    
PR11  -5717.025131  -9687.737281  22906.059693    -12.145606                    
PR12 -20022.540401   -367.254020  15804.983578    102.345802                    
PR13 -23537.402435   9772.799034  -1043.186507    -34.295213                    
PR14 -13211.089393  13705.770982 -16974.377063     47.739125                    
PR15   4680.598466   9908.868343 -23017.338372    105.836721                    
PR16  20416.955890   -202.539864 -15400.503615     -1.290665                    
PR17  -6782.617494  23805.634875  -6072.654536    297.710305                    
PR18   1052.381609  23098.122574  10858.719516     23.766091                    
PR19   7939.741208  10458.654420  21876.272174    -77.146430                    
PR20  11287.011518 -10514.913050  20314.453803   -403.088361                    
PR21   6478.512805 -24118.882400   5261.833980   -102.346047                    
PR22  -2317.706259 -21546.289818 -13340.025049    -12.393952                    
PR23  -9963.593662  -3568.436450 -23208.712730    283.891451                    
EOF                                     
